CCSDS_OEM_VERS = 1.0
CREATION_DATE  = 2017-05-11T11:01:35
ORIGINATOR     = GMAT USER

META_START
OBJECT_NAME          = MOPSSat_alt_35785_km_RAAN_0_077
OBJECT_ID            = SatId
CENTER_NAME          = Earth
REF_FRAME            = EME2000
TIME_SYSTEM          = UTC
START_TIME           = 2017-01-01T00:00:00.000
USEABLE_START_TIME   = 2017-01-01T00:00:00.000
USEABLE_STOP_TIME    = 2017-01-02T00:00:00.000
STOP_TIME            = 2017-01-02T00:00:00.000
INTERPOLATION        = Lagrange
INTERPOLATION_DEGREE = 7 
META_STOP


                                                                                   

2017-01-01T22:55:00.000   4.062528044771421e+04  -1.109016978527840e+04  -9.707785898791583e+02   8.126247693236295e-01   2.957191087528331e+00   2.586394778429632e-01
2017-01-01T22:55:10.000   4.063339586160758e+04  -1.106059491977707e+04  -9.681919365877054e+02   8.104579238940641e-01   2.957781702148412e+00   2.586911532843136e-01
2017-01-01T22:55:20.000   4.064148960481264e+04  -1.103101415625376e+04  -9.656047672523556e+02   8.082906449606810e-01   2.958370739632895e+00   2.587426907949776e-01
2017-01-01T22:55:30.000   4.064956167300051e+04  -1.100142751048149e+04  -9.630170832525622e+02   8.061229336822793e-01   2.958958199664990e+00   2.587940903472520e-01
2017-01-01T22:55:40.000   4.065761206186291e+04  -1.097183499820368e+04  -9.604288859651873e+02   8.039547912154923e-01   2.959544081929414e+00   2.588453519135662e-01
2017-01-01T22:55:50.000   4.066564076713073e+04  -1.094223663506332e+04  -9.578401767583113e+02   8.017862187095977e-01   2.960128386113729e+00   2.588964754665979e-01
2017-01-01T22:56:00.000   4.067364778454555e+04  -1.091263243670897e+04  -9.552509570005010e+02   7.996172173142848e-01   2.960711111906290e+00   2.589474609790947e-01
2017-01-01T22:56:10.000   4.068163310985722e+04  -1.088302241880548e+04  -9.526612280617481e+02   7.974477881804405e-01   2.961292258996054e+00   2.589983084238562e-01
2017-01-01T22:56:20.000   4.068959673881435e+04  -1.085340659706311e+04  -9.500709913160147e+02   7.952779324622803e-01   2.961871827071892e+00   2.590490177736752e-01
2017-01-01T22:56:30.000   4.069753866715973e+04  -1.082378498726161e+04  -9.474802481433422e+02   7.931076513191152e-01   2.962449815822259e+00   2.590995890013070e-01
2017-01-01T22:56:40.000   4.070545889065286e+04  -1.079415760516292e+04  -9.448889999222147e+02   7.909369459089555e-01   2.963026224936829e+00   2.591500220796147e-01
2017-01-01T22:56:50.000   4.071335740496786e+04  -1.076452446690216e+04  -9.422972480637520e+02   7.887658174171539e-01   2.963601054099066e+00   2.592003169809173e-01
2017-01-01T22:57:00.000   4.072123420581780e+04  -1.073488558851393e+04  -9.397049939702856e+02   7.865942670217032e-01   2.964174302995278e+00   2.592504736777826e-01
2017-01-01T22:57:10.000   4.072908928890820e+04  -1.070524098610840e+04  -9.371122390507541e+02   7.844222959061361e-01   2.964745971311222e+00   2.593004921427304e-01
2017-01-01T22:57:20.000   4.073692265011795e+04  -1.067559067518944e+04  -9.345189846610712e+02   7.822499052095674e-01   2.965316058745282e+00   2.593503723493851e-01
2017-01-01T22:57:30.000   4.074473428531869e+04  -1.064593467133473e+04  -9.319252321636020e+02   7.800770960765198e-01   2.965884564995314e+00   2.594001142713250e-01
2017-01-01T22:57:40.000   4.075252419041608e+04  -1.061627299004170e+04  -9.293309829136948e+02   7.779038696456425e-01   2.966451489761661e+00   2.594497178823457e-01
2017-01-01T22:57:50.000   4.076029236124598e+04  -1.058660564711090e+04  -9.267362382932113e+02   7.757302270777958e-01   2.967016832739586e+00   2.594991831557986e-01
2017-01-01T22:58:00.000   4.076803879365239e+04  -1.055693265836164e+04  -9.241409996856502e+02   7.735561695352163e-01   2.967580593624952e+00   2.595485100650874e-01
2017-01-01T22:58:10.000   4.077576348348628e+04  -1.052725403963161e+04  -9.215452684761196e+02   7.713816981814917e-01   2.968142772114133e+00   2.595976985836603e-01
2017-01-01T22:58:20.000   4.078346642653416e+04  -1.049756980706302e+04  -9.189490460763606e+02   7.692068142025238e-01   2.968703367898818e+00   2.596467486845558e-01
2017-01-01T22:58:30.000   4.079114761861544e+04  -1.046787997671748e+04  -9.163523338910676e+02   7.670315187783133e-01   2.969262380673091e+00   2.596956603410219e-01
2017-01-01T22:58:40.000   4.079880705554372e+04  -1.043818456472766e+04  -9.137551333311453e+02   7.648558130940675e-01   2.969819810130621e+00   2.597444335262701e-01
2017-01-01T22:58:50.000   4.080644473329974e+04  -1.040848358662713e+04  -9.111574457551021e+02   7.626796982911034e-01   2.970375655977247e+00   2.597930682145767e-01
2017-01-01T22:59:00.000   4.081406064785818e+04  -1.037877705802037e+04  -9.085592725276517e+02   7.605031755159388e-01   2.970929917918373e+00   2.598415643801796e-01
2017-01-01T22:59:10.000   4.082165479522734e+04  -1.034906499443147e+04  -9.059606150064715e+02   7.583262459092011e-01   2.971482595661845e+00   2.598899219975312e-01
2017-01-01T22:59:20.000   4.082922717134761e+04  -1.031934741168806e+04  -9.033614745757907e+02   7.561489106337633e-01   2.972033688910584e+00   2.599381410406522e-01
2017-01-01T22:59:30.000   4.083677777216770e+04  -1.028962432563648e+04  -9.007618526214720e+02   7.539711708538702e-01   2.972583197368114e+00   2.599862214836159e-01
2017-01-01T22:59:40.000   4.084430659364336e+04  -1.025989575214139e+04  -8.981617505309832e+02   7.517930277351121e-01   2.973131120738477e+00   2.600341633005417e-01
2017-01-01T22:59:50.000   4.085181363166799e+04  -1.023016170737241e+04  -8.955611697184612e+02   7.496144824654268e-01   2.973677458721180e+00   2.600819664651515e-01
2017-01-01T23:00:00.000   4.085929888216723e+04  -1.020042220741835e+04  -8.929601115909768e+02   7.474355362268332e-01   2.974222211018092e+00   2.601296309513736e-01
2017-01-01T23:00:10.000   4.086676234106145e+04  -1.017067726843905e+04  -8.903585775618155e+02   7.452561902065596e-01   2.974765377330691e+00   2.601771567331027e-01
2017-01-01T23:00:20.000   4.087420400443418e+04  -1.014092690599423e+04  -8.877565689917708e+02   7.430764455478661e-01   2.975306957372339e+00   2.602245437852728e-01
2017-01-01T23:00:30.000   4.088162386836345e+04  -1.011117113571458e+04  -8.851540872478456e+02   7.408963033992151e-01   2.975846950856000e+00   2.602717920827834e-01
2017-01-01T23:00:40.000   4.088902192896022e+04  -1.008140997315010e+04  -8.825511336899873e+02   7.387157649031619e-01   2.976385357497045e+00   2.603189016007443e-01
2017-01-01T23:00:50.000   4.089639818226967e+04  -1.005164343415486e+04  -8.799477097047329e+02   7.365348312245404e-01   2.976922177006057e+00   2.603658723138462e-01
2017-01-01T23:01:00.000   4.090375262434538e+04  -1.002187153460149e+04  -8.773438166802474e+02   7.343535035295505e-01   2.977457409094237e+00   2.604127041968342e-01
2017-01-01T23:01:10.000   4.091108525124808e+04  -9.992094290380963e+03  -8.747394560062985e+02   7.321717829857378e-01   2.977991053473314e+00   2.604593972244993e-01
2017-01-01T23:01:20.000   4.091839605897816e+04  -9.962311717689585e+03  -8.721346290993573e+02   7.299896707830200e-01   2.978523109850625e+00   2.605059513712482e-01
2017-01-01T23:01:30.000   4.092568504356776e+04  -9.932523832642642e+03  -8.695293373688107e+02   7.278071681053846e-01   2.979053577935828e+00   2.605523666116907e-01
2017-01-01T23:01:40.000   4.093295220104350e+04  -9.902730651429412e+03  -8.669235822305147e+02   7.256242761422408e-01   2.979582457438180e+00   2.605986429204014e-01
2017-01-01T23:01:50.000   4.094019752759319e+04  -9.872932189629542e+03  -8.643173650470102e+02   7.234409960383366e-01   2.980109748078677e+00   2.606447802729821e-01
2017-01-01T23:02:00.000   4.094742101939848e+04  -9.843128462898361e+03  -8.617106871874518e+02   7.212573289439652e-01   2.980635449577868e+00   2.606907786449951e-01
2017-01-01T23:02:10.000   4.095462267267826e+04  -9.813319486789966e+03  -8.591035500121442e+02   7.190732760020081e-01   2.981159561659021e+00   2.607366380122410e-01
2017-01-01T23:02:20.000   4.096180248357120e+04  -9.783505277232625e+03  -8.564959549141171e+02   7.168888383827630e-01   2.981682084039567e+00   2.607823583500095e-01
2017-01-01T23:02:30.000   4.096896044823311e+04  -9.753685850136584e+03  -8.538879032848220e+02   7.147040172552097e-01   2.982203016438192e+00   2.608279396336998e-01
2017-01-01T23:02:40.000   4.097609656281508e+04  -9.723861221481537e+03  -8.512793965217863e+02   7.125188137934204e-01   2.982722358573243e+00   2.608733818386818e-01
2017-01-01T23:02:50.000   4.098321082347086e+04  -9.694031407293203e+03  -8.486704360265619e+02   7.103332291748418e-01   2.983240110163264e+00   2.609186849403423e-01
2017-01-01T23:03:00.000   4.099030322636261e+04  -9.664196423613284e+03  -8.460610232020991e+02   7.081472645780948e-01   2.983756270927418e+00   2.609638489141224e-01
2017-01-01T23:03:10.000   4.099737376766368e+04  -9.634356286488744e+03  -8.434511594518070e+02   7.059609211821877e-01   2.984270840585687e+00   2.610088737355345e-01
2017-01-01T23:03:20.000   4.100442244358461e+04  -9.604511011865245e+03  -8.408408461702375e+02   7.037742001587108e-01   2.984783818860760e+00   2.610537593803282e-01
2017-01-01T23:03:30.000   4.101144925035531e+04  -9.574660615658087e+03  -8.382300847492844e+02   7.015871026770309e-01   2.985295205476746e+00   2.610985058243770e-01
2017-01-01T23:03:40.000   4.101845418422531e+04  -9.544805113752234e+03  -8.356188765781882e+02   6.993996299042964e-01   2.985805000159185e+00   2.611431130436798e-01
2017-01-01T23:03:50.000   4.102543724147961e+04  -9.514944521930925e+03  -8.330072230372934e+02   6.972117830002041e-01   2.986313202636206e+00   2.611875810144618e-01
2017-01-01T23:04:00.000   4.103239841841427e+04  -9.485078855982581e+03  -8.303951255073986e+02   6.950235631248349e-01   2.986819812636741e+00   2.612319097130188e-01
